{"fetched_at":"2026-03-29T02:12:04Z","count":15717,"tles":[{"name":"GPS BIIRM-8 (PRN 05)","line1":"1 35752U 09043A   26087.58590830 -.00000085  00000+0  00000+0 0  9991","line2":"2 35752  56.1631  30.6179 0052264  80.8092  90.0384  2.00558801121746","category":"GPS"}]}